{
  "type": "FeatureCollection",
  "features": [
    {
      "type": "Feature",
      "properties": {
        "norad_id": 59626,
        "name": "LEGION 2",
        "group": "resource",
        "lat": 22.322120841238366,
        "lon": 52.36580901669257,
        "alt_km": 514.6630243135523,
        "timestamp": "2025-12-06T16:45:42.384694+00:00",
        "meta_object_name": "LEGION 2",
        "meta_object_id": "2024-081B",
        "meta_epoch": "2025-12-06T05:34:36.831072",
        "meta_mean_motion": 15.16394723,
        "meta_eccentricity": 0.00060843,
        "meta_inclination": 97.5225,
        "meta_ra_of_asc_node": 55.0139,
        "meta_arg_of_pericenter": 320.2219,
        "meta_mean_anomaly": 39.8568,
        "meta_ephemeris_type": 0,
        "meta_classification_type": "U",
        "meta_norad_cat_id": 59626,
        "meta_element_set_no": 999,
        "meta_rev_at_epoch": 8829,
        "meta_bstar": 0.00048025917,
        "meta_mean_motion_dot": 9.269e-05,
        "meta_mean_motion_ddot": 0,
        "tle_line1": "1 59626U 24081B   25340.23237073  .00009269  00000+0  48026-3 0  9992",
        "tle_line2": "2 59626  97.5225  55.0139 0006084 320.2219  39.8568 15.16394723 88297"
      },
      "geometry": {
        "type": "Point",
        "coordinates": [
          52.36580901669257,
          22.322120841238366
        ]
      }
    },
    {
      "type": "Feature",
      "properties": {
        "norad_id": 60182,
        "name": "ALOS-4 (DAICHI-4)",
        "group": "resource",
        "lat": 56.56334523905359,
        "lon": -92.19173395108338,
        "alt_km": 624.6403968197101,
        "timestamp": "2025-12-06T16:45:42.384704+00:00",
        "meta_object_name": "ALOS-4 (DAICHI-4)",
        "meta_object_id": "2024-123A",
        "meta_epoch": "2025-12-06T06:28:15.014208",
        "meta_mean_motion": 14.79472049,
        "meta_eccentricity": 0.00014373,
        "meta_inclination": 97.9234,
        "meta_ra_of_asc_node": 75.2092,
        "meta_arg_of_pericenter": 101.5055,
        "meta_mean_anomaly": 258.6318,
        "meta_ephemeris_type": 0,
        "meta_classification_type": "U",
        "meta_norad_cat_id": 60182,
        "meta_element_set_no": 999,
        "meta_rev_at_epoch": 7735,
        "meta_bstar": 0.0005889489,
        "meta_mean_motion_dot": 4.35e-05,
        "meta_mean_motion_ddot": 0,
        "tle_line1": "1 60182U 24123A   25340.26961822  .00004350  00000+0  58895-3 0  9998",
        "tle_line2": "2 60182  97.9234  75.2092 0001437 101.5055 258.6318 14.79472049 77352"
      },
      "geometry": {
        "type": "Point",
        "coordinates": [
          -92.19173395108338,
          56.56334523905359
        ]
      }
    },
    {
      "type": "Feature",
      "properties": {
        "norad_id": 60452,
        "name": "LEGION 3",
        "group": "resource",
        "lat": 21.628608345157197,
        "lon": 5.890427300959934,
        "alt_km": 522.4724173707828,
        "timestamp": "2025-12-06T16:45:42.384715+00:00",
        "meta_object_name": "LEGION 3",
        "meta_object_id": "2024-146A",
        "meta_epoch": "2025-12-06T07:07:57.142560",
        "meta_mean_motion": 15.1565971,
        "meta_eccentricity": 0.00141189,
        "meta_inclination": 45.0027,
        "meta_ra_of_asc_node": 344.6672,
        "meta_arg_of_pericenter": 162.8437,
        "meta_mean_anomaly": 197.2921,
        "meta_ephemeris_type": 0,
        "meta_classification_type": "U",
        "meta_norad_cat_id": 60452,
        "meta_element_set_no": 999,
        "meta_rev_at_epoch": 7275,
        "meta_bstar": 0.00049415577,
        "meta_mean_motion_dot": 9.329e-05,
        "meta_mean_motion_ddot": 0,
        "tle_line1": "1 60452U 24146A   25340.29718915  .00009329  00000+0  49416-3 0  9999",
        "tle_line2": "2 60452  45.0027 344.6672 0014118 162.8437 197.2921 15.15659710 72757"
      },
      "geometry": {
        "type": "Point",
        "coordinates": [
          5.890427300959934,
          21.628608345157197
        ]
      }
    },
    {
      "type": "Feature",
      "properties": {
        "norad_id": 60453,
        "name": "LEGION 4",
        "group": "resource",
        "lat": 18.82461777569623,
        "lon": 94.16691573693387,
        "alt_km": 518.0804459683968,
        "timestamp": "2025-12-06T16:45:42.384725+00:00",
        "meta_object_name": "LEGION 4",
        "meta_object_id": "2024-146B",
        "meta_epoch": "2025-12-06T07:09:07.295040",
        "meta_mean_motion": 15.1572309,
        "meta_eccentricity": 0.00099275,
        "meta_inclination": 45.0391,
        "meta_ra_of_asc_node": 76.3947,
        "meta_arg_of_pericenter": 277.3719,
        "meta_mean_anomaly": 82.6031,
        "meta_ephemeris_type": 0,
        "meta_classification_type": "U",
        "meta_norad_cat_id": 60453,
        "meta_element_set_no": 999,
        "meta_rev_at_epoch": 7160,
        "meta_bstar": 0.00048570949,
        "meta_mean_motion_dot": 9.171e-05,
        "meta_mean_motion_ddot": 0,
        "tle_line1": "1 60453U 24146B   25340.29800110  .00009171  00000+0  48571-3 0  9995",
        "tle_line2": "2 60453  45.0391  76.3947 0009927 277.3719  82.6031 15.15723090 71608"
      },
      "geometry": {
        "type": "Point",
        "coordinates": [
          94.16691573693387,
          18.82461777569623
        ]
      }
    },
    {
      "type": "Feature",
      "properties": {
        "norad_id": 60989,
        "name": "SENTINEL-2C",
        "group": "resource",
        "lat": -42.31681472450777,
        "lon": -134.62250061362414,
        "alt_km": 795.9584014116299,
        "timestamp": "2025-12-06T16:45:42.384735+00:00",
        "meta_object_name": "SENTINEL-2C",
        "meta_object_id": "2024-157A",
        "meta_epoch": "2025-12-05T22:56:25.455552",
        "meta_mean_motion": 14.30814755,
        "meta_eccentricity": 0.00010424,
        "meta_inclination": 98.5686,
        "meta_ra_of_asc_node": 52.5358,
        "meta_arg_of_pericenter": 105.3336,
        "meta_mean_anomaly": 254.7962,
        "meta_ephemeris_type": 0,
        "meta_classification_type": "U",
        "meta_norad_cat_id": 60989,
        "meta_element_set_no": 999,
        "meta_rev_at_epoch": 6535,
        "meta_bstar": 0.0001353455,
        "meta_mean_motion_dot": 3.11e-06,
        "meta_mean_motion_ddot": 0,
        "tle_line1": "1 60989U 24157A   25339.95585018  .00000311  00000+0  13535-3 0  9998",
        "tle_line2": "2 60989  98.5686  52.5358 0001042 105.3336 254.7962 14.30814755 65354"
      },
      "geometry": {
        "type": "Point",
        "coordinates": [
          -134.62250061362414,
          -42.31681472450777
        ]
      }
    },
    {
      "type": "Feature",
      "properties": {
        "norad_id": 61735,
        "name": "IONOSFERA-M 1",
        "group": "resource",
        "lat": -54.0705781124347,
        "lon": -137.14896716086463,
        "alt_km": 823.0859296339713,
        "timestamp": "2025-12-06T16:45:42.384745+00:00",
        "meta_object_name": "IONOSFERA-M 1",
        "meta_object_id": "2024-199A",
        "meta_epoch": "2025-12-06T06:53:33.515808",
        "meta_mean_motion": 14.22711832,
        "meta_eccentricity": 0.00012644,
        "meta_inclination": 98.7415,
        "meta_ra_of_asc_node": 210.1847,
        "meta_arg_of_pericenter": 30.9976,
        "meta_mean_anomaly": 329.1276,
        "meta_ephemeris_type": 0,
        "meta_classification_type": "U",
        "meta_norad_cat_id": 61735,
        "meta_element_set_no": 999,
        "meta_rev_at_epoch": 10027,
        "meta_bstar": 9.0248873e-05,
        "meta_mean_motion_dot": 1.58e-06,
        "meta_mean_motion_ddot": 0,
        "tle_line1": "1 61735U 24199A   25340.28719347  .00000158  00000+0  90249-4 0  9993",
        "tle_line2": "2 61735  98.7415 210.1847 0001264  30.9976 329.1276 14.22711832100279"
      },
      "geometry": {
        "type": "Point",
        "coordinates": [
          -137.14896716086463,
          -54.0705781124347
        ]
      }
    },
    {
      "type": "Feature",
      "properties": {
        "norad_id": 61736,
        "name": "IONOSFERA-M 2",
        "group": "resource",
        "lat": 51.385539350358165,
        "lon": 41.61189251232003,
        "alt_km": 810.356232740658,
        "timestamp": "2025-12-06T16:45:42.384755+00:00",
        "meta_object_name": "IONOSFERA-M 2",
        "meta_object_id": "2024-199B",
        "meta_epoch": "2025-12-06T06:02:11.358240",
        "meta_mean_motion": 14.22714005,
        "meta_eccentricity": 0.00014675,
        "meta_inclination": 98.7414,
        "meta_ra_of_asc_node": 210.0619,
        "meta_arg_of_pericenter": 118.515,
        "meta_mean_anomaly": 241.6176,
        "meta_ephemeris_type": 0,
        "meta_classification_type": "U",
        "meta_norad_cat_id": 61736,
        "meta_element_set_no": 999,
        "meta_rev_at_epoch": 10339,
        "meta_bstar": 9.4097382e-05,
        "meta_mean_motion_dot": 1.67e-06,
        "meta_mean_motion_ddot": 0,
        "tle_line1": "1 61736U 24199B   25340.25152035  .00000167  00000+0  94097-4 0  9991",
        "tle_line2": "2 61736  98.7414 210.0619 0001467 118.5150 241.6176 14.22714005103395"
      },
      "geometry": {
        "type": "Point",
        "coordinates": [
          41.61189251232003,
          51.385539350358165
        ]
      }
    }
  ]
}